{"fetched_at":"2026-07-22T07:10:03.774Z","source":"https://celestrak.org/NORAD/elements/gp.php?NAME=SENTINEL&FORMAT=JSON","constellation":"sentinel-3","records":[{"OBJECT_NAME":"SENTINEL-3A","OBJECT_ID":"2016-011A","EPOCH":"2026-07-21T13:55:27.494976","CLASSIFICATION_TYPE":"U","MEAN_MOTION":14.26740972,"ECCENTRICITY":0.00013032,"INCLINATION":98.6232,"RA_OF_ASC_NODE":269.4668,"ARG_OF_PERICENTER":88.7627,"MEAN_ANOMALY":271.3703,"EPHEMERIS_TYPE":0,"NORAD_CAT_ID":41335,"ELEMENT_SET_NO":999,"REV_AT_EPOCH":54296,"BSTAR":0.000035166003,"MEAN_MOTION_DOT":4.1e-7,"MEAN_MOTION_DDOT":0},{"OBJECT_NAME":"SENTINEL-3B","OBJECT_ID":"2018-039A","EPOCH":"2026-07-21T14:57:47.455488","CLASSIFICATION_TYPE":"U","MEAN_MOTION":14.26737647,"ECCENTRICITY":0.0001288,"INCLINATION":98.6231,"RA_OF_ASC_NODE":269.6585,"ARG_OF_PERICENTER":118.3854,"MEAN_ANOMALY":241.7456,"EPHEMERIS_TYPE":0,"NORAD_CAT_ID":43437,"ELEMENT_SET_NO":999,"REV_AT_EPOCH":42903,"BSTAR":0.000042646252,"MEAN_MOTION_DOT":6e-7,"MEAN_MOTION_DDOT":0}]}
